{
  "norad_id": 66585,
  "name": "STARLINK-35963",
  "history": [
    {
      "epoch": "2026-03-28T10:37:16.586112",
      "apogee_km": 484.04426177354435,
      "perigee_km": 481.88918909338554,
      "latitude_deg": 14.216598797484068,
      "longitude_deg": 160.9850956799928,
      "semi_major_axis_km": 6861.103725433464,
      "eccentricity": 0.00015705,
      "inclination_deg": 42.9966,
      "raan_deg": 241.5107,
      "arg_perigee_deg": 278.2489,
      "mean_anomaly_deg": 81.8185,
      "mean_motion_rev_day": 15.27607509
    }
  ]
}